IRIDIUM 135             
1 43070U 17083A   26170.66323200 -.00000003  00000+0 -80403-5 0  9995
2 43070  86.3962 320.9800 0002072  91.8848 268.2585 14.34217289444505
IRIDIUM 138             
1 43071U 17083B   26170.47929581  .00000054  00000+0  12087-4 0  9995
2 43071  86.3980 320.7525 0002300  86.9005 273.2454 14.34217693444467
IRIDIUM 116             
1 43072U 17083C   26170.65688838 -.00000008  00000+0 -97787-5 0  9995
2 43072  86.3961 320.9687 0001916 100.2595 259.8817 14.34217419444520
IRIDIUM 130             
1 43073U 17083D   26170.48563307  .00000178  00000+0  56354-4 0  9990
2 43073  86.3974 321.3155 0001947  93.5195 266.6223 14.34219744444445
IRIDIUM 151             
1 43074U 17083E   26170.39050047 -.00000006  00000+0 -91179-5 0  9990
2 43074  86.3962 321.1378 0002054  93.3197 266.8234 14.34217286444452
IRIDIUM 134             
1 43075U 17083F   26170.84716620  .00000171  00000+0  54043-4 0  9996
2 43075  86.3964 320.9550 0002001  92.6892 267.4533 14.34218130444481
IRIDIUM 137             
1 43076U 17083G   26170.85985175 -.00000004  00000+0 -86350-5 0  9995
2 43076  86.3967 321.0426 0002238 104.0437 256.1008 14.34217457444555
IRIDIUM 141             
1 43077U 17083H   26170.78374008 -.00000009  00000+0 -10384-4 0  9993
2 43077  86.3961 320.9049 0002099  90.8092 269.3344 14.34217502444542
IRIDIUM 153             
1 43078U 17083J   26170.59638232  .00000047  00000+0  97751-5 0  9999
2 43078  86.3962 289.4633 0002225  89.9055 270.2396 14.34217793445621
IRIDIUM 131             
1 43079U 17083K   26170.77105443  .00000091  00000+0  25456-4 0  9994
2 43079  86.3972 321.0960 0002218  92.0946 268.0504 14.34217552444476
IRIDIUM 144             
1 43249U 18030A   26170.60272448  .00000256  00000+0  84463-4 0  9994
2 43249  86.3961 289.3896 0002130  97.6790 262.4647 14.34218070430486
IRIDIUM 149             
1 43250U 18030B   26170.74860475  .00000070  00000+0  18090-4 0  9991
2 43250  86.3959 289.2957 0002269  93.6583 266.4873 14.34217874430522
IRIDIUM 157             
1 43251U 18030C   26170.76763279  .00000053  00000+0  11788-4 0  9996
2 43251  86.3961 289.3410 0002202  94.3575 265.7872 14.34217675430505
IRIDIUM 140             
1 43252U 18030D   26170.57735485  .00000048  00000+0  10138-4 0  9996
2 43252  86.3960 289.4332 0002138  94.1946 265.9494 14.34217656430531
IRIDIUM 145             
1 43253U 18030E   26170.56466936  .00000051  00000+0  11113-4 0  9996
2 43253  86.3961 289.4107 0002042 101.7964 258.3461 14.34217648430465
IRIDIUM 146             
1 43254U 18030F   26170.75494556  .00000142  00000+0  43778-4 0  9990
2 43254  86.3960 289.3433 0002115  97.8281 262.3155 14.34216929430505
IRIDIUM 148             
1 43255U 18030G   26170.37439198  .00000014  00000+0 -21674-5 0  9991
2 43255  86.3958 289.5459 0002158  96.2696 263.8746 14.34217551430484
IRIDIUM 142             
1 43256U 18030H   26170.76129011  .00000024  00000+0  14850-5 0  9993
2 43256  86.3955 289.2729 0002035  99.5768 260.5658 14.34217431430505
IRIDIUM 150             
1 43257U 18030J   26170.72957670  .00000043  00000+0  84498-5 0  9996
2 43257  86.3962 289.4024 0002153  94.0391 266.1051 14.34217749430520
IRIDIUM 143             
1 43258U 18030K   26170.78031755  .00000101  00000+0  28900-4 0  9990
2 43258  86.3966 289.4739 0002126  96.8310 263.3128 14.34217942430461
IRIDIUM 161             
1 43478U 18047C   26170.73423731  .00000266  00000+0  72944-4 0  9995
2 43478  86.4481  87.4064 0002574  83.4983 276.6511 14.43279703425505
IRIDIUM 152             
1 43479U 18047D   26170.75303633  .00000191  00000+0  61149-4 0  9998
2 43479  86.3956  87.2597 0002324  82.6756 277.4704 14.34218014422859
IRIDIUM 147             
1 43480U 18047E   26170.75937830  .00000058  00000+0  13706-4 0  9990
2 43480  86.3959  87.2622 0002131  85.9840 274.1600 14.34217839422852
IRIDIUM 110             
1 43481U 18047F   26170.76572134  .00000168  00000+0  52992-4 0  9996
2 43481  86.3960  87.3515 0002550  81.1270 279.0215 14.34218314422841
IRIDIUM 162             
1 43482U 18047G   26170.79726929  .00000260  00000+0  71299-4 0  9997
2 43482  86.4481  87.2711 0002253  82.4127 277.7330 14.43282948425506
IRIDIUM 160             
1 43569U 18061A   26170.71155671 -.00000013  00000+0 -11578-4 0  9993
2 43569  86.3958  55.7419 0002168  85.4645 274.6799 14.34217400413736
IRIDIUM 166             
1 43570U 18061B   26170.73692673  .00000038  00000+0  64968-5 0  9992
2 43570  86.3959  55.6819 0002133  87.1175 273.0265 14.34217849413762
IRIDIUM 158             
1 43571U 18061C   26170.91451943  .00000064  00000+0  15892-4 0  9996
2 43571  86.3960  55.6175 0002201  82.9515 277.1932 14.34217698413754
IRIDIUM 165             
1 43572U 18061D   26170.73058422  .00000044  00000+0  85021-5 0  9992
2 43572  86.3961  55.7409 0002075  87.3169 272.8264 14.34217470413758
IRIDIUM 155             
1 43573U 18061E   26170.76229692  .00000021  00000+0  61060-6 0  9998
2 43573  86.3956  55.5965 0002106  83.4688 276.6748 14.34217743413725
