OBJECT_NAME,OBJECT_ID,EPOCH,MEAN_MOTION,ECCENTRICITY,INCLINATION,RA_OF_ASC_NODE,ARG_OF_PERICENTER,MEAN_ANOMALY,EPHEMERIS_TYPE,CLASSIFICATION_TYPE,NORAD_CAT_ID,ELEMENT_SET_NO,REV_AT_EPOCH,BSTAR,MEAN_MOTION_DOT,MEAN_MOTION_DDOT
IRIDIUM 135,2017-083A,2026-06-19T15:55:03.244800,14.34217289,.00020726,86.3962,320.9800,91.8848,268.2585,0,U,43070,999,44450,-.8040256E-5,-.3E-7,0
IRIDIUM 138,2017-083B,2026-06-19T11:30:11.157984,14.34217693,.00023002,86.3980,320.7525,86.9005,273.2454,0,U,43071,999,44446,.12086632E-4,.54E-6,0
IRIDIUM 116,2017-083C,2026-06-19T15:45:55.156032,14.34217419,.00019161,86.3961,320.9687,100.2595,259.8817,0,U,43072,999,44452,-.9778714E-5,-.8E-7,0
IRIDIUM 130,2017-083D,2026-06-19T11:39:18.697248,14.34219744,.0001947,86.3974,321.3155,93.5195,266.6223,0,U,43073,999,44444,.56353709E-4,.178E-5,0
IRIDIUM 151,2017-083E,2026-06-19T09:22:19.240608,14.34217286,.00020542,86.3962,321.1378,93.3197,266.8234,0,U,43074,999,44445,-.911786E-5,-.6E-7,0
IRIDIUM 134,2017-083F,2026-06-19T20:19:55.159680,14.34218130,.00020017,86.3964,320.9550,92.6892,267.4533,0,U,43075,999,44448,.54043461E-4,.171E-5,0
IRIDIUM 137,2017-083G,2026-06-19T20:38:11.191200,14.34217457,.00022388,86.3967,321.0426,104.0437,256.1008,0,U,43076,999,44455,-.8635003E-5,-.4E-7,0
IRIDIUM 141,2017-083H,2026-06-19T18:48:35.142912,14.34217502,.00020998,86.3961,320.9049,90.8092,269.3344,0,U,43077,999,44454,-.10383684E-4,-.9E-7,0
IRIDIUM 153,2017-083J,2026-06-19T14:18:47.432448,14.34217793,.00022252,86.3962,289.4633,89.9055,270.2396,0,U,43078,999,44562,.977506E-5,.47E-6,0
IRIDIUM 131,2017-083K,2026-06-19T18:30:19.102752,14.34217552,.00022183,86.3972,321.0960,92.0946,268.0504,0,U,43079,999,44447,.25455923E-4,.91E-6,0
IRIDIUM 144,2018-030A,2026-06-19T14:27:55.395072,14.34218070,.00021304,86.3961,289.3896,97.6790,262.4647,0,U,43249,999,43048,.84463239E-4,.256E-5,0
IRIDIUM 149,2018-030B,2026-06-19T17:57:59.450400,14.34217874,.00022695,86.3959,289.2957,93.6583,266.4873,0,U,43250,999,43052,.18089793E-4,.7E-6,0
IRIDIUM 157,2018-030C,2026-06-19T18:25:23.473056,14.34217675,.00022024,86.3961,289.3410,94.3575,265.7872,0,U,43251,999,43050,.11787866E-4,.53E-6,0
IRIDIUM 140,2018-030D,2026-06-19T13:51:23.459040,14.34217656,.00021388,86.3960,289.4332,94.1946,265.9494,0,U,43252,999,43053,.1013779E-4,.48E-6,0
IRIDIUM 145,2018-030E,2026-06-19T13:33:07.432704,14.34217648,.00020428,86.3961,289.4107,101.7964,258.3461,0,U,43253,999,43046,.11113413E-4,.51E-6,0
IRIDIUM 146,2018-030F,2026-06-19T18:07:07.296384,14.34216929,.00021157,86.3960,289.3433,97.8281,262.3155,0,U,43254,999,43050,.43778379E-4,.142E-5,0
IRIDIUM 148,2018-030G,2026-06-19T08:59:07.467072,14.34217551,.00021584,86.3958,289.5459,96.2696,263.8746,0,U,43255,999,43048,-.216738E-5,.14E-6,0
IRIDIUM 142,2018-030H,2026-06-19T18:16:15.465504,14.34217431,.00020358,86.3955,289.2729,99.5768,260.5658,0,U,43256,999,43050,.148497E-5,.24E-6,0
IRIDIUM 150,2018-030J,2026-06-19T17:30:35.426880,14.34217749,.0002153,86.3962,289.4024,94.0391,266.1051,0,U,43257,999,43052,.8449784E-5,.43E-6,0
IRIDIUM 143,2018-030K,2026-06-19T18:43:39.436320,14.34217942,.00021261,86.3966,289.4739,96.8310,263.3128,0,U,43258,999,43046,.28899789E-4,.101E-5,0
IRIDIUM 161,2018-047C,2026-06-19T17:37:18.103584,14.43279703,.00025743,86.4481,87.4064,83.4983,276.6511,0,U,43478,999,42550,.72943693E-4,.266E-5,0
IRIDIUM 152,2018-047D,2026-06-19T18:04:22.338912,14.34218014,.00023244,86.3956,87.2597,82.6756,277.4704,0,U,43479,999,42285,.611494E-4,.191E-5,0
IRIDIUM 147,2018-047E,2026-06-19T18:13:30.285120,14.34217839,.00021319,86.3959,87.2622,85.9840,274.1600,0,U,43480,999,42285,.13705751E-4,.58E-6,0
IRIDIUM 110,2018-047F,2026-06-19T18:22:38.323776,14.34218314,.00025503,86.3960,87.3515,81.1270,279.0215,0,U,43481,999,42284,.52992475E-4,.168E-5,0
IRIDIUM 162,2018-047G,2026-06-19T19:08:04.066656,14.43282948,.00022532,86.4481,87.2711,82.4127,277.7330,0,U,43482,999,42550,.71298873E-4,.26E-5,0
IRIDIUM 160,2018-061A,2026-06-19T17:04:38.499744,14.34217400,.00021685,86.3958,55.7419,85.4645,274.6799,0,U,43569,999,41373,-.11578035E-4,-.13E-6,0
IRIDIUM 166,2018-061B,2026-06-19T17:41:10.469472,14.34217849,.00021336,86.3959,55.6819,87.1175,273.0265,0,U,43570,999,41376,.6496826E-5,.38E-6,0
IRIDIUM 158,2018-061C,2026-06-19T21:56:54.478752,14.34217698,.00022014,86.3960,55.6175,82.9515,277.1932,0,U,43571,999,41375,.15892024E-4,.64E-6,0
IRIDIUM 165,2018-061D,2026-06-19T17:32:02.476608,14.34217470,.00020755,86.3961,55.7409,87.3169,272.8264,0,U,43572,999,41375,.8502126E-5,.44E-6,0
IRIDIUM 155,2018-061E,2026-06-19T18:17:42.453888,14.34217743,.00021064,86.3956,55.5965,83.4688,276.6748,0,U,43573,999,41372,.610598E-6,.21E-6,0
